<osm version="0.6" generator="geojsontoosm"><node id="-1" lat="50.29494868632001" lon="31.47124343309"><tag k="addr:housenumber" v="8в"/><tag k="addr:street" v="Гайовий провулок"/></node><node id="-2" lat="50.29563320093002" lon="31.47289154964"><tag k="addr:housenumber" v="7"/><tag k="addr:street" v="Гайовий провулок"/></node><node id="-3" lat="50.29524614939" lon="31.47299989566999"><tag k="addr:street" v="Гайовий провулок"/><tag k="addr:housenumber" v="9"/></node><node id="-4" lat="50.29161860956001" lon="31.46905023210999"><tag k="addr:street" v="Гайовий провулок"/><tag k="addr:housenumber" v="16"/></node><node id="-5" lat="50.29198469223999" lon="31.4683781032"><tag k="addr:street" v="Гайовий провулок"/><tag k="addr:housenumber" v="18а"/></node><node id="-6" lat="50.29305151401" lon="31.47059602784"><tag k="addr:street" v="Гайовий провулок"/><tag k="addr:housenumber" v="36"/></node><node id="-7" lat="50.29145751623" lon="31.469509699299987"><tag k="addr:street" v="Гайовий провулок"/><tag k="addr:housenumber" v="14"/></node><node id="-8" lat="50.29445124431001" lon="31.47195128326"><tag k="addr:street" v="Гайовий провулок"/><tag k="addr:housenumber" v="24"/></node><node id="-9" lat="50.294323510020014" lon="31.47255342066"><tag k="addr:street" v="Гайовий провулок"/><tag k="addr:housenumber" v="24"/></node><node id="-10" lat="50.29561831129001" lon="31.47319219865"><tag k="addr:housenumber" v="7"/><tag k="addr:street" v="Гайовий провулок"/></node><node id="-11" lat="50.29397771750001" lon="31.47229978778999"><tag k="addr:street" v="Гайовий провулок"/><tag k="addr:housenumber" v="28"/></node><node id="-12" lat="50.29489401865" lon="31.47318482754"><tag k="addr:street" v="Гайовий провулок"/><tag k="addr:housenumber" v="11"/></node><node id="-13" lat="50.29451384329001" lon="31.472579379829984"><tag k="addr:street" v="Гайовий провулок"/><tag k="addr:housenumber" v="22"/></node><node id="-14" lat="50.29004010222001" lon="31.47289355065"><tag k="addr:street" v="Гайовий провулок"/><tag k="addr:housenumber" v="10а"/></node><node id="-15" lat="50.294636885" lon="31.47202932186999"><tag k="addr:street" v="Гайовий провулок"/><tag k="addr:housenumber" v="22а"/></node><node id="-16" lat="50.29168951828999" lon="31.46975405349"><tag k="addr:street" v="Гайовий провулок"/><tag k="addr:housenumber" v="14"/></node><node id="-17" lat="50.29601477302001" lon="31.47300197253999"><tag k="addr:housenumber" v="5а"/><tag k="addr:street" v="Гайовий провулок"/></node><node id="-18" lat="50.29457974301001" lon="31.471436815159986"><tag k="addr:street" v="Гайовий провулок"/><tag k="addr:housenumber" v="8б"/></node><node id="-19" lat="50.29283795354" lon="31.47024926639999"><tag k="addr:street" v="Гайовий провулок"/><tag k="addr:housenumber" v="36"/></node><node id="-20" lat="50.292235275990016" lon="31.468175864"><tag k="addr:housenumber" v="18б"/><tag k="addr:street" v="Гайовий провулок"/></node><node id="-21" lat="50.29475301711001" lon="31.47227564093999"><tag k="addr:housenumber" v="10/1"/><tag k="addr:street" v="Гайовий провулок"/></node><node id="-22" lat="50.292582542760016" lon="31.47058304199999"><tag k="addr:street" v="Гайовий провулок"/><tag k="addr:housenumber" v="38"/></node><node id="-23" lat="50.29487067745" lon="31.47159270895"><tag k="addr:housenumber" v="8в"/><tag k="addr:street" v="Гайовий провулок"/></node><node id="-24" lat="50.294657104970014" lon="31.4711533993"><tag k="addr:street" v="Гайовий провулок"/><tag k="addr:housenumber" v="8б"/></node><node id="-25" lat="50.28999361415001" lon="31.474293315"><tag k="addr:street" v="Гайовий провулок"/><tag k="addr:housenumber" v="11а"/></node><node id="-26" lat="50.29486882318" lon="31.47250115113999"><tag k="addr:housenumber" v="10а/1"/><tag k="addr:street" v="Гайовий провулок"/></node><node id="-27" lat="50.29465175346" lon="31.472800282559987"><tag k="addr:housenumber" v="10/1"/><tag k="addr:street" v="Гайовий провулок"/></node><node id="-28" lat="50.29112982374" lon="31.47021110422"><tag k="addr:street" v="Гайовий провулок"/><tag k="addr:housenumber" v="12"/></node></osm>