<?xml version="1.0" encoding="UTF-8"?><osm version="0.6" upload="true" generator="JOSM"><node id="-1" lat="49.43556458272" lon="32.06313216311001"><tag k="addr:street" v="Богдана Хмельницького провулок"/><tag k="addr:housenumber" v="4"/></node><node id="-2" lat="49.435215692960014" lon="32.06383415427"><tag k="addr:street" v="Богдана Хмельницького провулок"/><tag k="addr:housenumber" v="16"/></node><node id="-3" lat="49.43512203526" lon="32.0644710483"><tag k="addr:street" v="Богдана Хмельницького провулок"/><tag k="addr:housenumber" v="11"/></node><node id="-4" lat="49.434718228450016" lon="32.064683664799986"><tag k="addr:street" v="Богдана Хмельницького провулок"/><tag k="addr:housenumber" v="22"/></node><node id="-5" lat="49.43533808593001" lon="32.06408075294"><tag k="addr:street" v="Богдана Хмельницького провулок"/><tag k="addr:housenumber" v="7"/></node><node id="-6" lat="49.43489312512" lon="32.06438249247"><tag k="addr:street" v="Богдана Хмельницького провулок"/><tag k="addr:housenumber" v="20"/></node><node id="-7" lat="49.43525431762" lon="32.06420770677"><tag k="addr:street" v="Богдана Хмельницького провулок"/><tag k="addr:housenumber" v="9"/></node><node id="-8" lat="49.43493265853" lon="32.0648917106"><tag k="addr:street" v="Богдана Хмельницького провулок"/><tag k="addr:housenumber" v="15"/><tag k="building" v="house"/></node><node id="-9" lat="49.43527385941" lon="32.06285225585001"><tag k="addr:street" v="Богдана Хмельницького провулок"/><tag k="addr:housenumber" v="6"/></node><node id="-10" lat="49.435351906960015" lon="32.06360014112001"><tag k="addr:street" v="Богдана Хмельницького провулок"/><tag k="addr:housenumber" v="12"/></node><node id="-11" lat="49.435003736020015" lon="32.06467495335999"><tag k="addr:street" v="Богдана Хмельницького провулок"/><tag k="addr:housenumber" v="13"/></node><node id="-12" lat="49.43539079343" lon="32.06345641528"><tag k="addr:street" v="Богдана Хмельницького провулок"/><tag k="addr:housenumber" v="10"/></node><node id="-13" lat="49.435095384980016" lon="32.06409411002"><tag k="addr:street" v="Богдана Хмельницького провулок"/><tag k="addr:housenumber" v="18"/></node></osm>