<?xml version="1.0" encoding="UTF-8"?><osm version="0.6" upload="true" generator="JOSM"><node id="-1" lat="49.440869684369986" lon="32.07943994984"><tag k="addr:housenumber" v="61"/><tag k="addr:street" v="Героїв Дніпра вулиця"/><tag k="building" v="apartments"/><tag k="building:levels" v="14"/></node><node id="-2" lat="49.43735939756" lon="32.086660449019995"><tag k="addr:housenumber" v="31"/><tag k="addr:street" v="Героїв Дніпра вулиця"/><tag k="building:levels" v="9"/><tag k="building" v="apartments"/></node><node id="-3" lat="49.4402109816" lon="32.07951885575"><tag k="addr:street" v="Героїв Дніпра вулиця"/><tag k="addr:housenumber" v="53/3"/><tag k="building" v="apartments"/><tag k="building:levels" v="10"/></node><node id="-4" lat="49.44058231426" lon="32.07830706883"><tag k="addr:street" v="Героїв Дніпра вулиця"/><tag k="building" v="apartments"/><tag k="building:levels" v="10"/><tag k="addr:housenumber" v="57"/></node><node id="-5" lat="49.43667236591" lon="32.08701838485001"><tag k="addr:street" v="Героїв Дніпра вулиця"/><tag k="building:levels" v="9"/><tag k="building" v="apartments"/><tag k="addr:housenumber" v="35"/></node><node id="-6" lat="49.43700632760999" lon="32.08744038689"><tag k="addr:street" v="Героїв Дніпра вулиця"/><tag k="addr:housenumber" v="29"/><tag k="building:levels" v="9"/><tag k="building" v="apartments"/></node><node id="-7" lat="49.44006542273" lon="32.09635103479001"><tag k="addr:street" v="Героїв Дніпра вулиця"/><tag k="building" v="apartments"/><tag k="addr:housenumber" v="4"/></node><node id="-8" lat="49.44552933155001" lon="32.07549348458"><tag k="addr:street" v="Героїв Дніпра вулиця"/><tag k="addr:housenumber" v="85"/><tag k="building" v="apartments"/><tag k="building:levels" v="10"/></node><node id="-9" lat="49.43769564375" lon="32.09184181811"><tag k="addr:street" v="Героїв Дніпра вулиця"/><tag k="building" v="apartments"/><tag k="addr:housenumber" v="17"/></node><node id="-10" lat="49.43823409252001" lon="32.08174260858"><tag k="addr:street" v="Героїв Дніпра вулиця"/><tag k="building" v="apartments"/><tag k="building:levels" v="10"/><tag k="addr:housenumber" v="45"/></node><node id="-11" lat="49.44041142975999" lon="32.08004409960998"><tag k="addr:street" v="Героїв Дніпра вулиця"/><tag k="addr:housenumber" v="53/2"/><tag k="building" v="apartments"/><tag k="building:levels" v="10"/></node><node id="-12" lat="49.43974825209" lon="32.07877051537"><tag k="addr:housenumber" v="53/4"/><tag k="addr:street" v="Героїв Дніпра вулиця"/><tag k="building" v="apartments"/></node><node id="-13" lat="49.44043430806" lon="32.09709601373999"><tag k="addr:street" v="Героїв Дніпра вулиця"/><tag k="addr:housenumber" v="4/2"/><tag k="building" v="apartments"/></node><node id="-14" lat="49.43709129004" lon="32.09144622867"><tag k="addr:street" v="Героїв Дніпра вулиця"/><tag k="building" v="apartments"/><tag k="addr:housenumber" v="23"/></node><node id="-15" lat="49.44288041080999" lon="32.079331802820015"><tag k="addr:street" v="Героїв Дніпра вулиця"/><tag k="addr:housenumber" v="54"/></node><node id="-16" lat="49.44016672399" lon="32.09710275301"><tag k="addr:street" v="Героїв Дніпра вулиця"/><tag k="addr:housenumber" v="4/3"/><tag k="building" v="apartments"/></node><node id="-17" lat="49.44511975453001" lon="32.07788317305999"><tag k="addr:housenumber" v="72"/><tag k="addr:street" v="Героїв Дніпра вулиця"/></node><node id="-18" lat="49.43849496511" lon="32.08328818793999"><tag k="addr:street" v="Героїв Дніпра вулиця"/><tag k="addr:housenumber" v="41"/></node><node id="-19" lat="49.44266760433999" lon="32.08248803388"><tag k="addr:street" v="Героїв Дніпра вулиця"/><tag k="addr:housenumber" v="46"/></node><node id="-20" lat="49.446231578249986" lon="32.07482045430998"><tag k="addr:street" v="Героїв Дніпра вулиця"/><tag k="addr:housenumber" v="87"/></node><node id="-21" lat="49.43791478621" lon="32.08287583022001"><tag k="addr:street" v="Героїв Дніпра вулиця"/><tag k="building" v="apartments"/><tag k="building:levels" v="10"/><tag k="start_date" v="1990"/><tag k="building:flats" v="80"/><tag k="addr:housenumber" v="43"/></node><node id="-22" lat="49.4391946307" lon="32.09520053959"><tag k="addr:street" v="Героїв Дніпра вулиця"/><tag k="addr:housenumber" v="7"/><tag k="start_date" v="2007"/><tag k="building" v="apartments"/></node><node id="-23" lat="49.44315944672" lon="32.07655963318001"><tag k="addr:housenumber" v="73"/><tag k="addr:street" v="Героїв Дніпра вулиця"/><tag k="building" v="apartments"/><tag k="building:levels" v="10"/></node><node id="-24" lat="49.447138826960014" lon="32.075875225070014"><tag k="addr:street" v="Героїв Дніпра вулиця"/><tag k="building" v="apartments"/><tag k="building:levels" v="14"/><tag k="addr:housenumber" v="89"/></node><node id="-25" lat="49.44256261800001" lon="32.076001691749994"><tag k="addr:street" v="Героїв Дніпра вулиця"/><tag k="addr:housenumber" v="71"/><tag k="building" v="apartments"/><tag k="building:levels" v="10"/></node><node id="-26" lat="49.43962434768999" lon="32.07936915958"><tag k="addr:street" v="Героїв Дніпра вулиця"/><tag k="addr:housenumber" v="53/1"/></node><node id="-27" lat="49.44496183588" lon="32.07488572108999"><tag k="addr:housenumber" v="83"/><tag k="addr:street" v="Героїв Дніпра вулиця"/><tag k="building" v="apartments"/><tag k="building:levels" v="10"/></node><node id="-28" lat="49.43913106224" lon="32.094198044190016"><tag k="addr:street" v="Героїв Дніпра вулиця"/><tag k="addr:housenumber" v="7/1"/><tag k="building" v="apartments"/></node><node id="-29" lat="49.43818711096" lon="32.09216393488002"><tag k="addr:housenumber" v="15а"/><tag k="addr:street" v="Героїв Дніпра вулиця"/></node><node id="-30" lat="49.43775650130999" lon="32.09066380127"><tag k="building:levels" v="7"/><tag k="addr:street" v="Героїв Дніпра вулиця"/><tag k="building" v="apartments"/><tag k="addr:housenumber" v="27/1"/></node><node id="-31" lat="49.439277661469994" lon="32.08223933354"><tag k="addr:street" v="Героїв Дніпра вулиця"/><tag k="building" v="apartments"/><tag k="building:levels" v="10"/><tag k="addr:housenumber" v="49"/></node><node id="-32" lat="49.44439060105999" lon="32.07691613218002"><tag k="addr:street" v="Героїв Дніпра вулиця"/><tag k="addr:housenumber" v="77"/></node><node id="-33" lat="49.44115969022" lon="32.07944197844"><tag k="building:flats" v="50"/><tag k="addr:street" v="Героїв Дніпра вулиця"/><tag k="addr:housenumber" v="63"/><tag k="start_date" v="2007"/><tag k="building" v="apartments"/><tag k="building:levels" v="12"/></node><node id="-34" lat="49.43939197642001" lon="32.0961746213"><tag k="addr:street" v="Героїв Дніпра вулиця"/><tag k="building:levels" v="9"/><tag k="building" v="apartments"/><tag k="addr:housenumber" v="5"/></node><node id="-35" lat="49.44519365907" lon="32.07672938272"><tag k="addr:street" v="Героїв Дніпра вулиця"/><tag k="addr:housenumber" v="81"/><tag k="building" v="apartments"/><tag k="building:levels" v="10"/></node><node id="-36" lat="49.4367270979" lon="32.09142012674"><tag k="addr:housenumber" v="25/1"/><tag k="addr:street" v="Героїв Дніпра вулиця"/><tag k="building:levels" v="15"/><tag k="building" v="apartments"/></node><node id="-37" lat="49.43940393623" lon="32.08342816428"><tag k="addr:housenumber" v="40"/><tag k="addr:street" v="Героїв Дніпра вулиця"/></node><node id="-38" lat="49.44204398906" lon="32.0782209766"><tag k="addr:street" v="Героїв Дніпра вулиця"/><tag k="addr:housenumber" v="67"/></node><node id="-39" lat="49.43683473482" lon="32.0889112938"><tag k="addr:street" v="Героїв Дніпра вулиця"/><tag k="addr:housenumber" v="27"/></node><node id="-40" lat="49.43998600014" lon="32.09388955788999"><tag k="addr:street" v="Героїв Дніпра вулиця"/><tag k="addr:housenumber" v="8"/></node><node id="-41" lat="49.44020939698" lon="32.09533365184"><tag k="addr:street" v="Героїв Дніпра вулиця"/><tag k="addr:housenumber" v="6"/></node><node id="-42" lat="49.44065823680001" lon="32.08170102958"><tag k="addr:housenumber" v="42"/><tag k="addr:street" v="Героїв Дніпра вулиця"/></node><node id="-43" lat="49.44132349242" lon="32.07937399104"><tag k="addr:street" v="Героїв Дніпра вулиця"/><tag k="addr:housenumber" v="63/2"/></node><node id="-44" lat="49.44574708023999" lon="32.0745483352"><tag k="addr:street" v="Героїв Дніпра вулиця"/><tag k="addr:housenumber" v="87/1"/></node><node id="-45" lat="49.43785971345999" lon="32.09137730542"><tag k="addr:street" v="Героїв Дніпра вулиця"/><tag k="addr:housenumber" v="19"/><tag k="building" v="apartments"/></node><node id="-46" lat="49.443349019619994" lon="32.07898175123998"><tag k="addr:street" v="Героїв Дніпра вулиця"/><tag k="addr:housenumber" v="56"/></node><node id="-47" lat="49.43833417564" lon="32.08600796878"><tag k="addr:street" v="Героїв Дніпра вулиця"/><tag k="addr:housenumber" v="34"/></node><node id="-48" lat="49.44388310040999" lon="32.07592596833001"><tag k="addr:housenumber" v="75"/><tag k="addr:street" v="Героїв Дніпра вулиця"/></node><node id="-49" lat="49.43803116834" lon="32.08735978412001"><tag k="addr:street" v="Героїв Дніпра вулиця"/><tag k="addr:housenumber" v="32"/></node><node id="-50" lat="49.44071595609" lon="32.07792457472999"><tag k="addr:street" v="Героїв Дніпра вулиця"/><tag k="building" v="apartments"/><tag k="building:levels" v="10"/><tag k="addr:housenumber" v="55"/></node><node id="-51" lat="49.439061105349985" lon="32.09706355977999"><tag k="addr:street" v="Героїв Дніпра вулиця"/><tag k="building:levels" v="9"/><tag k="building" v="apartments"/><tag k="addr:housenumber" v="3"/></node><node id="-52" lat="49.44189540487999" lon="32.07603935393"><tag k="addr:housenumber" v="69/1"/><tag k="addr:street" v="Героїв Дніпра вулиця"/></node><node id="-53" lat="49.43917060108" lon="32.08134023282001"><tag k="addr:housenumber" v="51"/><tag k="addr:street" v="Героїв Дніпра вулиця"/><tag k="building" v="apartments"/><tag k="building:levels" v="10"/></node><node id="-54" lat="49.44149548803999" lon="32.07865082165"><tag k="addr:street" v="Героїв Дніпра вулиця"/><tag k="building" v="apartments"/><tag k="building:levels" v="10"/><tag k="addr:housenumber" v="65"/></node><node id="-55" lat="49.43759543515" lon="32.0911177066"><tag k="addr:street" v="Героїв Дніпра вулиця"/><tag k="building" v="apartments"/><tag k="addr:housenumber" v="21"/></node><node id="-56" lat="49.44071043727" lon="32.07886103091"><tag k="addr:street" v="Героїв Дніпра вулиця"/><tag k="building" v="apartments"/><tag k="building:levels" v="10"/><tag k="addr:housenumber" v="59"/></node><node id="-57" lat="49.44219310549" lon="32.08025677614"><tag k="addr:housenumber" v="50"/><tag k="addr:street" v="Героїв Дніпра вулиця"/></node><node id="-58" lat="49.43966787721998" lon="32.08007686801"><tag k="addr:housenumber" v="53"/><tag k="addr:street" v="Героїв Дніпра вулиця"/><tag k="building" v="apartments"/><tag k="building:levels" v="10"/></node><node id="-59" lat="49.44295631401001" lon="32.077785681419996"><tag k="addr:street" v="Героїв Дніпра вулиця"/><tag k="building" v="apartments"/><tag k="addr:housenumber" v="69"/></node><node id="-60" lat="49.43875943432001" lon="32.08228913781"><tag k="addr:street" v="Героїв Дніпра вулиця"/><tag k="building" v="apartments"/><tag k="building:levels" v="10"/><tag k="addr:housenumber" v="47"/></node><node id="-61" lat="49.43810298211002" lon="32.09348073563999"><tag k="addr:street" v="Героїв Дніпра вулиця"/><tag k="addr:housenumber" v="13"/></node><node id="-62" lat="49.43753411318" lon="32.09232087250002"><tag k="addr:street" v="Героїв Дніпра вулиця"/><tag k="building" v="apartments"/><tag k="addr:housenumber" v="15"/></node><node id="-63" lat="49.44043047583999" lon="32.09660539186"><tag k="addr:street" v="Героїв Дніпра вулиця"/><tag k="building" v="apartments"/><tag k="addr:housenumber" v="4/1"/></node><node id="-64" lat="49.43861528702001" lon="32.08477808442"><tag k="addr:street" v="Героїв Дніпра вулиця"/><tag k="addr:housenumber" v="30"/></node><node id="-65" lat="49.436517804920015" lon="32.09173042523"><tag k="addr:street" v="Героїв Дніпра вулиця"/><tag k="building" v="apartments"/><tag k="addr:housenumber" v="25"/><tag k="building:levels" v="12"/></node></osm>