<?xml version="1.0" encoding="UTF-8"?><osm version="0.6" upload="true" generator="JOSM"><node id="-1" lat="49.43120859955" lon="32.09897209169"><tag k="building" v="house"/><tag k="addr:housenumber" v="88"/><tag k="addr:street" v="Нижня Горова вулиця"/></node><node id="-2" lat="49.43143139501" lon="32.1000164987"><tag k="addr:housenumber" v="96"/><tag k="building:levels" v="9"/><tag k="building" v="apartments"/><tag k="addr:street" v="Нижня Горова вулиця"/></node><node id="-3" lat="49.432603246450014" lon="32.0976732813"><tag k="addr:housenumber" v="63"/><tag k="building" v="house"/><tag k="addr:street" v="Нижня Горова вулиця"/></node><node id="-4" lat="49.43169977338999" lon="32.09421025694"><tag k="addr:housenumber" v="58а"/><tag k="building" v="house"/><tag k="addr:street" v="Нижня Горова вулиця"/></node><node id="-5" lat="49.43210377281" lon="32.09434487056"><tag k="addr:housenumber" v="62"/><tag k="building:levels" v="9"/><tag k="building" v="apartments"/><tag k="addr:street" v="Нижня Горова вулиця"/></node><node id="-6" lat="49.43287250066" lon="32.09243405221"><tag k="building:levels" v="5"/><tag k="addr:housenumber" v="41"/><tag k="building" v="apartments"/><tag k="addr:street" v="Нижня Горова вулиця"/></node><node id="-7" lat="49.43223966277" lon="32.08551128412002"><tag k="building:levels" v="9"/><tag k="building" v="apartments"/><tag k="addr:housenumber" v="4"/><tag k="addr:street" v="Нижня Горова вулиця"/></node><node id="-8" lat="49.427566699649994" lon="32.10464335302999"><tag k="building" v="house"/><tag k="addr:street" v="Нижня Горова вулиця"/><tag k="addr:housenumber" v="144"/></node><node id="-9" lat="49.43229478239" lon="32.09001333872002"><tag k="building:levels" v="9"/><tag k="building" v="apartments"/><tag k="addr:housenumber" v="44"/><tag k="addr:street" v="Нижня Горова вулиця"/></node><node id="-10" lat="49.428973130110016" lon="32.10359298124"><tag k="building" v="house"/><tag k="addr:housenumber" v="134"/><tag k="addr:street" v="Нижня Горова вулиця"/></node><node id="-11" lat="49.432308978830015" lon="32.09605065885001"><tag k="addr:housenumber" v="72"/><tag k="building" v="house"/><tag k="addr:street" v="Нижня Горова вулиця"/></node><node id="-12" lat="49.42690184289001" lon="32.10544146058"><tag k="addr:housenumber" v="150"/><tag k="building" v="house"/><tag k="addr:street" v="Нижня Горова вулиця"/></node><node id="-13" lat="49.43002413255" lon="32.10265970912001"><tag k="building" v="house"/><tag k="addr:housenumber" v="120"/><tag k="addr:street" v="Нижня Горова вулиця"/></node><node id="-14" lat="49.42641104910001" lon="32.10590546788"><tag k="building" v="house"/><tag k="addr:housenumber" v="154"/><tag k="addr:street" v="Нижня Горова вулиця"/></node><node id="-15" lat="49.43222976248" lon="32.09820099021"><tag k="addr:housenumber" v="80"/><tag k="building" v="house"/><tag k="addr:street" v="Нижня Горова вулиця"/></node><node id="-16" lat="49.42937453929" lon="32.102970135160014"><tag k="addr:housenumber" v="128"/><tag k="building" v="house"/><tag k="addr:street" v="Нижня Горова вулиця"/></node><node id="-17" lat="49.4279298473" lon="32.10456141912999"><tag k="addr:housenumber" v="140"/><tag k="building" v="house"/><tag k="addr:street" v="Нижня Горова вулиця"/></node><node id="-18" lat="49.432255965170015" lon="32.09771493925001"><tag k="building" v="house"/><tag k="addr:street" v="Нижня Горова вулиця"/><tag k="addr:housenumber" v="78"/></node><node id="-19" lat="49.43039089955001" lon="32.10226686308"><tag k="addr:housenumber" v="114"/><tag k="building" v="house"/><tag k="addr:street" v="Нижня Горова вулиця"/></node><node id="-20" lat="49.43265252138" lon="32.09589352144"><tag k="addr:housenumber" v="53"/><tag k="building" v="house"/><tag k="addr:street" v="Нижня Горова вулиця"/></node><node id="-21" lat="49.43293528485002" lon="32.08680750117999"><tag k="building:levels" v="5"/><tag k="addr:housenumber" v="7"/><tag k="building" v="apartments"/><tag k="addr:street" v="Нижня Горова вулиця"/></node><node id="-22" lat="49.431921288619996" lon="32.10116672490001"><tag k="building" v="apartments"/><tag k="addr:housenumber" v="105"/><tag k="addr:street" v="Нижня Горова вулиця"/></node><node id="-23" lat="49.4334003799" lon="32.09746623403"><tag k="addr:housenumber" v="63/1"/><tag k="addr:street" v="Нижня Горова вулиця"/></node><node id="-24" lat="49.43286856575999" lon="32.08805961066"><tag k="building:levels" v="5"/><tag k="building" v="apartments"/><tag k="addr:housenumber" v="11"/><tag k="addr:street" v="Нижня Горова вулиця"/></node><node id="-25" lat="49.428183814320015" lon="32.10432415222999"><tag k="addr:housenumber" v="138"/><tag k="building" v="house"/><tag k="addr:street" v="Нижня Горова вулиця"/></node><node id="-26" lat="49.42971538247003" lon="32.10274689381"><tag k="addr:housenumber" v="124"/><tag k="building" v="house"/><tag k="addr:street" v="Нижня Горова вулиця"/></node><node id="-27" lat="49.432686051449984" lon="32.09567396271"><tag k="addr:housenumber" v="51"/><tag k="building" v="house"/><tag k="addr:street" v="Нижня Горова вулиця"/></node><node id="-28" lat="49.43288750237999" lon="32.086089498849994"><tag k="building:levels" v="5"/><tag k="building" v="apartments"/><tag k="addr:housenumber" v="5"/><tag k="addr:street" v="Нижня Горова вулиця"/></node><node id="-29" lat="49.43229730739" lon="32.1005725782"><tag k="building" v="apartments"/><tag k="addr:housenumber" v="103"/><tag k="addr:street" v="Нижня Горова вулиця"/></node><node id="-30" lat="49.43149269635" lon="32.09955779706"><tag k="addr:housenumber" v="86"/><tag k="building" v="house"/><tag k="addr:street" v="Нижня Горова вулиця"/></node><node id="-31" lat="49.43266014729" lon="32.09539774816002"><tag k="building" v="house"/><tag k="addr:housenumber" v="49"/><tag k="addr:street" v="Нижня Горова вулиця"/></node><node id="-32" lat="49.43234929528" lon="32.08763115868999"><tag k="addr:housenumber" v="30"/><tag k="addr:street" v="Нижня Горова вулиця"/></node><node id="-33" lat="49.42987222966" lon="32.10281913097002"><tag k="building" v="house"/><tag k="addr:street" v="Нижня Горова вулиця"/><tag k="addr:housenumber" v="122"/></node><node id="-34" lat="49.42967444317" lon="32.10301275977"><tag k="building" v="house"/><tag k="addr:housenumber" v="126"/><tag k="addr:street" v="Нижня Горова вулиця"/></node><node id="-35" lat="49.43307114039" lon="32.09643267838001"><tag k="building:levels" v="5"/><tag k="building" v="apartments"/><tag k="addr:housenumber" v="55"/><tag k="addr:street" v="Нижня Горова вулиця"/></node><node id="-36" lat="49.42771453315" lon="32.10453306593"><tag k="building" v="house"/><tag k="addr:housenumber" v="142"/><tag k="addr:street" v="Нижня Горова вулиця"/></node><node id="-37" lat="49.43292107056" lon="32.09110228764"><tag k="building:levels" v="5"/><tag k="building" v="apartments"/><tag k="addr:housenumber" v="27"/><tag k="addr:street" v="Нижня Горова вулиця"/></node><node id="-38" lat="49.4303282176" lon="32.102926383570015"><tag k="building" v="house"/><tag k="addr:housenumber" v="121"/><tag k="addr:street" v="Нижня Горова вулиця"/></node><node id="-39" lat="49.42671793848002" lon="32.10646439946"><tag k="addr:housenumber" v="143/4"/><tag k="building" v="apartments"/><tag k="addr:street" v="Нижня Горова вулиця"/></node><node id="-40" lat="49.4322747034" lon="32.09731450046"><tag k="building" v="house"/><tag k="addr:housenumber" v="76"/><tag k="addr:street" v="Нижня Горова вулиця"/></node><node id="-41" lat="49.433006554649985" lon="32.09852035537001"><tag k="addr:housenumber" v="71"/><tag k="building" v="apartments"/><tag k="building:levels" v="10"/><tag k="addr:street" v="Нижня Горова вулиця"/></node><node id="-42" lat="49.43213787489" lon="32.094978020580015"><tag k="addr:housenumber" v="64"/><tag k="building:levels" v="9"/><tag k="building" v="apartments"/><tag k="addr:street" v="Нижня Горова вулиця"/></node><node id="-43" lat="49.432730952560014" lon="32.09046691098001"><tag k="building" v="apartments"/><tag k="addr:housenumber" v="25"/><tag k="addr:street" v="Нижня Горова вулиця"/></node><node id="-44" lat="49.43101506367999" lon="32.09947535443001"><tag k="addr:housenumber" v="90"/><tag k="building" v="house"/><tag k="addr:street" v="Нижня Горова вулиця"/></node><node id="-45" lat="49.43210779431" lon="32.09554213673002"><tag k="building" v="apartments"/><tag k="building:levels" v="10"/><tag k="addr:housenumber" v="68"/><tag k="addr:street" v="Нижня Горова вулиця"/></node><node id="-46" lat="49.43131289852002" lon="32.100686175069995"><tag k="building:levels" v="9"/><tag k="building" v="apartments"/><tag k="addr:housenumber" v="98"/><tag k="addr:street" v="Нижня Горова вулиця"/></node><node id="-47" lat="49.43269782963999" lon="32.09351881602003"><tag k="building:levels" v="5"/><tag k="building" v="apartments"/><tag k="addr:housenumber" v="43"/><tag k="addr:street" v="Нижня Горова вулиця"/></node><node id="-48" lat="49.43292802825001" lon="32.08981397397"><tag k="building:levels" v="5"/><tag k="building" v="apartments"/><tag k="addr:housenumber" v="21"/><tag k="addr:street" v="Нижня Горова вулиця"/></node><node id="-49" lat="49.42911112497003" lon="32.10343353709"><tag k="building" v="house"/><tag k="addr:housenumber" v="132"/><tag k="addr:street" v="Нижня Горова вулиця"/></node><node id="-50" lat="49.432722451" lon="32.08844385446"><tag k="addr:housenumber" v="11а"/><tag k="addr:street" v="Нижня Горова вулиця"/></node><node id="-51" lat="49.42992095641" lon="32.10272495941"><tag k="addr:housenumber" v="122/2"/><tag k="building" v="house"/><tag k="addr:street" v="Нижня Горова вулиця"/></node><node id="-52" lat="49.430132390730016" lon="32.102508186700014"><tag k="addr:housenumber" v="118"/><tag k="building" v="house"/><tag k="addr:street" v="Нижня Горова вулиця"/></node><node id="-53" lat="49.42703971543" lon="32.10534092535001"><tag k="addr:housenumber" v="150/1"/><tag k="building" v="house"/><tag k="addr:street" v="Нижня Горова вулиця"/></node><node id="-54" lat="49.43199739503999" lon="32.08850371748"><tag k="addr:housenumber" v="40"/><tag k="building:levels" v="2"/><tag k="addr:street" v="Нижня Горова вулиця"/></node><node id="-55" lat="49.43283452902" lon="32.09492780996"><tag k="building:levels" v="5"/><tag k="building" v="apartments"/><tag k="addr:housenumber" v="47"/><tag k="addr:street" v="Нижня Горова вулиця"/></node><node id="-56" lat="49.43186545680999" lon="32.096192363050015"><tag k="building:levels" v="9"/><tag k="addr:housenumber" v="70"/><tag k="building" v="apartments"/><tag k="addr:street" v="Нижня Горова вулиця"/></node><node id="-57" lat="49.43019064902001" lon="32.10221845273"><tag k="addr:housenumber" v="116"/><tag k="building" v="house"/><tag k="addr:street" v="Нижня Горова вулиця"/></node><node id="-58" lat="49.43267959998" lon="32.08747766147999"><tag k="building:levels" v="5"/><tag k="addr:housenumber" v="9"/><tag k="building" v="apartments"/><tag k="addr:street" v="Нижня Горова вулиця"/></node><node id="-59" lat="49.43142094473" lon="32.10163968686"><tag k="building:flats" v="76"/><tag k="building" v="apartments"/><tag k="building:levels" v="10"/><tag k="addr:housenumber" v="115"/><tag k="addr:street" v="Нижня Горова вулиця"/></node><node id="-60" lat="49.43238092420001" lon="32.08924266030999"><tag k="addr:housenumber" v="42"/><tag k="building" v="house"/><tag k="addr:street" v="Нижня Горова вулиця"/></node><node id="-61" lat="49.43247468063999" lon="32.08451802016001"><tag k="building:levels" v="9"/><tag k="building" v="apartments"/><tag k="addr:housenumber" v="2"/><tag k="addr:street" v="Нижня Горова вулиця"/></node><node id="-62" lat="49.43269750718999" lon="32.09415406595"><tag k="building" v="house"/><tag k="addr:street" v="Нижня Горова вулиця"/><tag k="addr:housenumber" v="45"/></node><node id="-63" lat="49.43077774553" lon="32.10244328625"><tag k="addr:housenumber" v="117"/><tag k="building:levels" v="2"/><tag k="addr:street" v="Нижня Горова вулиця"/></node><node id="-64" lat="49.43242899681" lon="32.09980965158"><tag k="building" v="house"/><tag k="addr:housenumber" v="99"/><tag k="addr:street" v="Нижня Горова вулиця"/></node><node id="-65" lat="49.42926426841" lon="32.10332230095002"><tag k="addr:housenumber" v="130"/><tag k="building" v="house"/><tag k="addr:street" v="Нижня Горова вулиця"/></node><node id="-66" lat="49.42737000311" lon="32.10504978883"><tag k="addr:housenumber" v="146"/><tag k="building" v="house"/><tag k="addr:street" v="Нижня Горова вулиця"/></node><node id="-67" lat="49.43286716088" lon="32.09742495359999"><tag k="building" v="apartments"/><tag k="addr:housenumber" v="57"/><tag k="building:levels" v="11"/><tag k="addr:street" v="Нижня Горова вулиця"/></node><node id="-68" lat="49.42664145171998" lon="32.10519469729"><tag k="building" v="apartments"/><tag k="addr:housenumber" v="168"/><tag k="addr:street" v="Нижня Горова вулиця"/></node><node id="-69" lat="49.4273505142" lon="32.10569678725"><tag k="building:levels" v="9"/><tag k="building" v="apartments"/><tag k="addr:housenumber" v="135"/><tag k="addr:street" v="Нижня Горова вулиця"/></node><node id="-70" lat="49.42827148648" lon="32.10473173939"><tag k="addr:housenumber" v="125"/><tag k="building" v="house"/><tag k="addr:street" v="Нижня Горова вулиця"/></node><node id="-71" lat="49.42668921519" lon="32.105615115900015"><tag k="addr:housenumber" v="152"/><tag k="building" v="house"/><tag k="addr:street" v="Нижня Горова вулиця"/></node><node id="-72" lat="49.43186220289" lon="32.09316426095001"><tag k="addr:street" v="Нижня Горова вулиця"/><tag k="addr:housenumber" v="56"/></node><node id="-73" lat="49.42737846221" lon="32.10421110744"><tag k="building" v="apartments"/><tag k="addr:housenumber" v="164"/><tag k="addr:street" v="Нижня Горова вулиця"/></node><node id="-74" lat="49.42717621779" lon="32.10521579040002"><tag k="building" v="house"/><tag k="addr:housenumber" v="148"/><tag k="addr:street" v="Нижня Горова вулиця"/></node><node id="-75" lat="49.43180085842" lon="32.09910040288001"><tag k="addr:housenumber" v="82"/><tag k="building:levels" v="3"/><tag k="addr:street" v="Нижня Горова вулиця"/></node></osm>