<?xml version="1.0" encoding="UTF-8"?><osm version="0.6" upload="true" generator="JOSM"><node id="-1" lat="49.39885678597001" lon="32.069756137020015"><tag k="addr:street" v="Садове товариство Перемога"/><tag k="addr:housenumber" v="653"/></node><node id="-2" lat="49.39886684101" lon="32.070847606319994"><tag k="addr:street" v="Садове товариство Перемога"/><tag k="addr:housenumber" v="600"/></node><node id="-3" lat="49.39879595314" lon="32.07038600288"><tag k="addr:street" v="Садове товариство Перемога"/><tag k="addr:housenumber" v="628"/></node><node id="-4" lat="49.39922528359" lon="32.07021175673"><tag k="addr:street" v="Садове товариство Перемога"/><tag k="addr:housenumber" v="597"/></node><node id="-5" lat="49.39724362825999" lon="32.07426230642"><tag k="addr:street" v="Садове товариство Перемога"/><tag k="addr:housenumber" v="584"/></node><node id="-6" lat="49.39783157228999" lon="32.07322454012"><tag k="addr:street" v="Садове товариство Перемога"/><tag k="addr:housenumber" v="579"/></node><node id="-7" lat="49.39862145968998" lon="32.07242198318"><tag k="addr:street" v="Садове товариство Перемога"/><tag k="addr:housenumber" v="542"/></node><node id="-8" lat="49.39915643977" lon="32.07089567822"><tag k="addr:street" v="Садове товариство Перемога"/><tag k="addr:housenumber" v="568"/></node><node id="-9" lat="49.3971225319" lon="32.07447056655"><tag k="addr:street" v="Садове товариство Перемога"/><tag k="addr:housenumber" v="585"/></node><node id="-10" lat="49.39825937133" lon="32.0730531051"><tag k="addr:street" v="Садове товариство Перемога"/><tag k="addr:housenumber" v="545"/></node><node id="-11" lat="49.39903324250002" lon="32.06997266307001"><tag k="addr:street" v="Садове товариство Перемога"/><tag k="addr:housenumber" v="626"/></node><node id="-12" lat="49.399113970700014" lon="32.07041360401"><tag k="addr:street" v="Садове товариство Перемога"/><tag k="addr:housenumber" v="598"/></node><node id="-13" lat="49.39849883174" lon="32.072633037970014"><tag k="addr:street" v="Садове товариство Перемога"/><tag k="addr:housenumber" v="543"/></node><node id="-14" lat="49.399585426" lon="32.07073053193"><tag k="addr:street" v="Садове товариство Перемога"/><tag k="addr:housenumber" v="534"/></node><node id="-15" lat="49.398141002970014" lon="32.07326490042"><tag k="addr:street" v="Садове товариство Перемога"/><tag k="addr:housenumber" v="546"/></node><node id="-16" lat="49.39885109849" lon="32.07200240912"><tag k="addr:street" v="Садове товариство Перемога"/><tag k="addr:housenumber" v="540"/></node><node id="-17" lat="49.3979467286" lon="32.073015745130014"><tag k="addr:street" v="Садове товариство Перемога"/><tag k="addr:housenumber" v="578"/></node><node id="-18" lat="49.398776907130014" lon="32.07154716947999"><tag k="addr:street" v="Садове товариство Перемога"/><tag k="addr:housenumber" v="571"/></node><node id="-19" lat="49.39950524770001" lon="32.07026882461"><tag k="addr:street" v="Садове товариство Перемога"/><tag k="addr:housenumber" v="565"/></node><node id="-20" lat="49.399095987" lon="32.07160955630999"><tag k="addr:street" v="Садове товариство Перемога"/><tag k="addr:housenumber" v="538"/></node><node id="-21" lat="49.39771368984" lon="32.07342980487"><tag k="addr:street" v="Садове товариство Перемога"/><tag k="addr:housenumber" v="580"/></node><node id="-22" lat="49.39838137366" lon="32.07284601265"><tag k="addr:street" v="Садове товариство Перемога"/><tag k="addr:housenumber" v="544"/></node><node id="-23" lat="49.39867975191" lon="32.07059106353"><tag k="addr:street" v="Садове товариство Перемога"/><tag k="addr:housenumber" v="629"/></node><node id="-24" lat="49.39720499595" lon="32.07492808241"><tag k="addr:street" v="Садове товариство Перемога"/><tag k="addr:housenumber" v="554"/></node><node id="-25" lat="49.3977925237" lon="32.07388261914"><tag k="addr:street" v="Садове товариство Перемога"/><tag k="addr:housenumber" v="549"/></node><node id="-26" lat="49.397085575369985" lon="32.07513612602002"><tag k="addr:street" v="Садове товариство Перемога"/><tag k="addr:housenumber" v="555"/></node><node id="-27" lat="49.39935330337001" lon="32.07114579362"><tag k="addr:street" v="Садове товариство Перемога"/><tag k="addr:housenumber" v="536"/></node><node id="-28" lat="49.3989910006" lon="32.07063376115"><tag k="addr:street" v="Садове товариство Перемога"/><tag k="addr:housenumber" v="599"/></node><node id="-29" lat="49.398898561699994" lon="32.07134916775999"><tag k="addr:street" v="Садове товариство Перемога"/><tag k="addr:housenumber" v="570"/></node><node id="-30" lat="49.399151886150015" lon="32.069765992370016"><tag k="addr:street" v="Садове товариство Перемога"/><tag k="addr:housenumber" v="625"/></node><node id="-31" lat="49.398184653899996" lon="32.07259846479"><tag k="addr:street" v="Садове товариство Перемога"/><tag k="addr:housenumber" v="576"/></node><node id="-32" lat="49.39933903965" lon="32.07000830004"><tag k="addr:street" v="Садове товариство Перемога"/><tag k="addr:housenumber" v="596"/></node><node id="-33" lat="49.39946584489" lon="32.07093734933"><tag k="addr:street" v="Садове товариство Перемога"/><tag k="addr:housenumber" v="535"/></node><node id="-34" lat="49.39806677258" lon="32.07280373251"><tag k="addr:street" v="Садове товариство Перемога"/><tag k="addr:housenumber" v="577"/></node><node id="-35" lat="49.39744111112999" lon="32.07450846559999"><tag k="addr:street" v="Садове товариство Перемога"/><tag k="addr:housenumber" v="552"/></node><node id="-36" lat="49.39862075183" lon="32.07016155570999"><tag k="addr:street" v="Садове товариство Перемога"/><tag k="addr:housenumber" v="655"/></node><node id="-37" lat="49.39873402178" lon="32.06996463127"><tag k="addr:street" v="Садове товариство Перемога"/><tag k="addr:housenumber" v="654"/></node><node id="-38" lat="49.396885853549996" lon="32.07487990861"><tag k="addr:street" v="Садове товариство Перемога"/><tag k="addr:housenumber" v="587"/></node><node id="-39" lat="49.39898128932" lon="32.06953319389"><tag k="addr:street" v="Садове товариство Перемога"/><tag k="addr:housenumber" v="652"/></node><node id="-40" lat="49.398028008570016" lon="32.07346695255"><tag k="addr:street" v="Садове товариство Перемога"/><tag k="addr:housenumber" v="547"/></node><node id="-41" lat="49.39736262496" lon="32.07404655720997"><tag k="addr:street" v="Садове товариство Перемога"/><tag k="addr:housenumber" v="583"/></node><node id="-42" lat="49.39938688544" lon="32.070480633299994"><tag k="addr:street" v="Садове товариство Перемога"/><tag k="addr:housenumber" v="566"/></node><node id="-43" lat="49.39676825018" lon="32.07509030292002"><tag k="addr:street" v="Садове товариство Перемога"/><tag k="addr:housenumber" v="588"/></node><node id="-44" lat="49.39842076047" lon="32.07217882713002"><tag k="addr:street" v="Садове товариство Перемога"/><tag k="addr:housenumber" v="574"/></node><node id="-45" lat="49.39926852188" lon="32.070692441"><tag k="addr:street" v="Садове товариство Перемога"/><tag k="addr:housenumber" v="567"/></node><node id="-46" lat="49.3979155763" lon="32.07367927616"><tag k="addr:street" v="Садове товариство Перемога"/><tag k="addr:housenumber" v="548"/></node><node id="-47" lat="49.39748064959" lon="32.07384386208"><tag k="addr:street" v="Садове товариство Перемога"/><tag k="addr:housenumber" v="582"/></node><node id="-48" lat="49.39904393572" lon="32.07109121143"><tag k="addr:street" v="Садове товариство Перемога"/><tag k="addr:housenumber" v="569"/></node><node id="-49" lat="49.39897332482002" lon="32.071817845249996"><tag k="addr:street" v="Садове товариство Перемога"/><tag k="addr:housenumber" v="539"/></node><node id="-50" lat="49.39830057744" lon="32.07238827467001"><tag k="addr:street" v="Садове товариство Перемога"/><tag k="addr:housenumber" v="575"/></node><node id="-51" lat="49.39873584790003" lon="32.07221457511"><tag k="addr:street" v="Садове товариство Перемога"/><tag k="addr:housenumber" v="541"/></node><node id="-52" lat="49.398660077449996" lon="32.07175618763999"><tag k="addr:street" v="Садове товариство Перемога"/><tag k="addr:housenumber" v="572"/></node><node id="-53" lat="49.397597483119995" lon="32.07363485387"><tag k="addr:street" v="Садове товариство Перемога"/><tag k="addr:housenumber" v="581"/></node><node id="-54" lat="49.39700604209" lon="32.07467047452"><tag k="addr:street" v="Садове товариство Перемога"/><tag k="addr:housenumber" v="586"/></node><node id="-55" lat="49.39731924771" lon="32.07471811804"><tag k="addr:street" v="Садове товариство Перемога"/><tag k="addr:housenumber" v="553"/></node><node id="-56" lat="49.39854366981" lon="32.07197290918001"><tag k="addr:street" v="Садове товариство Перемога"/><tag k="addr:housenumber" v="573"/></node><node id="-57" lat="49.39909490303" lon="32.06932716853"><tag k="addr:street" v="Садове товариство Перемога"/><tag k="addr:housenumber" v="651"/></node><node id="-58" lat="49.39982815323999" lon="32.0702932083"><tag k="addr:street" v="Садове товариство Перемога"/><tag k="addr:housenumber" v="532"/></node><node id="-59" lat="49.39891124538001" lon="32.07017976534"><tag k="addr:street" v="Садове товариство Перемога"/><tag k="addr:housenumber" v="627"/></node><node id="-60" lat="49.397673105049996" lon="32.07409066775999"><tag k="addr:street" v="Садове товариство Перемога"/><tag k="addr:housenumber" v="550"/></node><node id="-61" lat="49.39923996773" lon="32.07135695087001"><tag k="addr:street" v="Садове товариство Перемога"/><tag k="addr:housenumber" v="537"/></node><node id="-62" lat="49.39970211263" lon="32.07051893923001"><tag k="addr:street" v="Садове товариство Перемога"/><tag k="addr:housenumber" v="533"/></node><node id="-63" lat="49.39946103643" lon="32.06980119554"><tag k="addr:street" v="Садове товариство Перемога"/><tag k="addr:housenumber" v="595"/></node><node id="-64" lat="49.39962639983" lon="32.07004631098001"><tag k="addr:street" v="Садове товариство Перемога"/><tag k="addr:housenumber" v="564"/></node><node id="-65" lat="49.39697265360999" lon="32.07535496996"><tag k="addr:street" v="Садове товариство Перемога"/><tag k="addr:housenumber" v="556"/></node><node id="-66" lat="49.39927234669001" lon="32.06956167253"><tag k="addr:street" v="Садове товариство Перемога"/><tag k="addr:housenumber" v="624"/></node><node id="-67" lat="49.39755612962" lon="32.074297105769986"><tag k="addr:street" v="Садове товариство Перемога"/><tag k="addr:housenumber" v="551"/></node><node id="-68" lat="49.39850511200002" lon="32.07037242081"><tag k="addr:street" v="Садове товариство Перемога"/><tag k="addr:housenumber" v="656"/></node></osm>